{"fetched_at":"2026-03-30T06:02:59Z","count":15439,"tles":[{"name":"STARLINK-36531","line1":"1 67513U 26012W   26087.67095882  .00039972  00000+0  14527-2 0  9991","line2":"2 67513  43.0015 207.2945 0001538 258.1997 101.8682 15.27615186 10665","category":"Starlink"}]}